STARLINK-30488          
1 57931U 23147U   25333.79912356  .00000533  00000+0  54524-4 0  9994
2 57931  43.0024 148.6772 0000935 260.7223  99.3514 15.02535537121599
STARLINK-30471          
1 57932U 23147V   25333.78247475  .00000776  00000+0  72510-4 0  9991
2 57932  43.0013 148.5485 0001485 271.5946  88.4726 15.02535671121561
STARLINK-30461          
1 57933U 23147W   25333.19417173  .00000626  00000+0  61381-4 0  9999
2 57933  43.0000 151.8818 0000444 279.2748  80.8044 15.02535572121473
STARLINK-30712          
1 57935U 23148A   25334.14979257  .00000412  00000+0  26026-4 0  9994
2 57935  53.1610 126.5499 0001216  98.9382 261.1756 15.30189733123185
STARLINK-30716          
1 57936U 23148B   25333.72212205 -.00003942  00000+0 -12102-3 0  9993
2 57936  53.1599 128.7713 0001174  71.6652 288.4477 15.30209955123110
STARLINK-30400          
1 57937U 23148C   25334.15296259 -.00001071  00000+0 -24056-4 0  9996
2 57937  53.1620 126.5310 0001103  92.8008 267.3119 15.30182591123189
STARLINK-30710          
1 57938U 23148D   25333.68318186  .00001107  00000+0  49511-4 0  9999
2 57938  53.1606 118.7409 0001236  83.5831 276.5311 15.30199698123243
STARLINK-30714          
1 57939U 23148E   25333.72845449 -.00000624  00000+0 -89414-5 0  9994
2 57939  53.1594 128.7955 0001138  80.4877 279.6252 15.30196211123116
STARLINK-30711          
1 57940U 23148F   25333.72529154  .00001059  00000+0  47886-4 0  9995
2 57940  53.1577 128.7962 0001107  75.9812 284.1311 15.30191980123116
STARLINK-30715          
1 57941U 23148G   25334.13192694  .00000562  00000+0  31095-4 0  9990
2 57941  53.1606 116.4235 0001261  88.1082 272.0063 15.30195861123328
STARLINK-30455          
1 57942U 23148H   25334.12350149  .00001528  00000+0  63716-4 0  9999
2 57942  53.1572 126.9607 0001176  88.8659 271.2476 15.30195733123172
STARLINK-30456          
1 57943U 23148J   25333.71896667 -.00001970  00000+0 -54440-4 0  9991
2 57943  53.1603 128.8307 0001216  85.1257 274.9882 15.30183116123112
STARLINK-30708          
1 57944U 23148K   25333.69891909 -.00000136  00000+0  75274-5 0  9994
2 57944  53.1610 128.7042 0001323  88.5455 271.5698 15.30191888123115
STARLINK-30705          
1 57945U 23148L   25333.64415735  .00001340  00000+0  57390-4 0  9994
2 57945  53.1595 129.0770 0000996  91.8593 268.2522 15.30185433123102
STARLINK-30704          
1 57946U 23148M   25334.05732959  .00001325  00000+0  56861-4 0  9996
2 57946  53.1600 204.2305 0001369  81.7325 278.3831 15.30197965122068
STARLINK-30706          
1 57947U 23148N   25333.71580493 -.00000107  00000+0  85045-5 0  9998
2 57947  53.1597 128.8023 0001178  69.0061 291.1065 15.30190590123112
STARLINK-30707          
1 57949U 23148Q   25333.71263970  .00000128  00000+0  16458-4 0  9991
2 57949  53.1602 128.7895 0001048  77.9152 282.1967 15.30191108123119
