[{"OBJECT_NAME":"STARLINK-30488","OBJECT_ID":"2023-147U","EPOCH":"2025-11-29T19:10:44.275584","MEAN_MOTION":15.02535537,"ECCENTRICITY":9.35e-5,"INCLINATION":43.0024,"RA_OF_ASC_NODE":148.6772,"ARG_OF_PERICENTER":260.7223,"MEAN_ANOMALY":99.3514,"EPHEMERIS_TYPE":0,"CLASSIFICATION_TYPE":"U","NORAD_CAT_ID":57931,"ELEMENT_SET_NO":999,"REV_AT_EPOCH":12159,"BSTAR":5.4524e-5,"MEAN_MOTION_DOT":5.33e-6,"MEAN_MOTION_DDOT":0},{"OBJECT_NAME":"STARLINK-30471","OBJECT_ID":"2023-147V","EPOCH":"2025-11-29T18:46:45.818400","MEAN_MOTION":15.02535671,"ECCENTRICITY":0.0001485,"INCLINATION":43.0013,"RA_OF_ASC_NODE":148.5485,"ARG_OF_PERICENTER":271.5946,"MEAN_ANOMALY":88.4726,"EPHEMERIS_TYPE":0,"CLASSIFICATION_TYPE":"U","NORAD_CAT_ID":57932,"ELEMENT_SET_NO":999,"REV_AT_EPOCH":12156,"BSTAR":7.251e-5,"MEAN_MOTION_DOT":7.76e-6,"MEAN_MOTION_DDOT":0},{"OBJECT_NAME":"STARLINK-30461","OBJECT_ID":"2023-147W","EPOCH":"2025-11-29T04:39:36.437472","MEAN_MOTION":15.02535572,"ECCENTRICITY":4.446e-5,"INCLINATION":43,"RA_OF_ASC_NODE":151.8818,"ARG_OF_PERICENTER":279.2748,"MEAN_ANOMALY":80.8044,"EPHEMERIS_TYPE":0,"CLASSIFICATION_TYPE":"U","NORAD_CAT_ID":57933,"ELEMENT_SET_NO":999,"REV_AT_EPOCH":12147,"BSTAR":6.1381333e-5,"MEAN_MOTION_DOT":6.26e-6,"MEAN_MOTION_DDOT":0},{"OBJECT_NAME":"STARLINK-30712","OBJECT_ID":"2023-148A","EPOCH":"2025-11-30T03:35:42.078048","MEAN_MOTION":15.30189733,"ECCENTRICITY":0.0001216,"INCLINATION":53.161,"RA_OF_ASC_NODE":126.5499,"ARG_OF_PERICENTER":98.9382,"MEAN_ANOMALY":261.1756,"EPHEMERIS_TYPE":0,"CLASSIFICATION_TYPE":"U","NORAD_CAT_ID":57935,"ELEMENT_SET_NO":999,"REV_AT_EPOCH":12318,"BSTAR":2.6026e-5,"MEAN_MOTION_DOT":4.12e-6,"MEAN_MOTION_DDOT":0},{"OBJECT_NAME":"STARLINK-30716","OBJECT_ID":"2023-148B","EPOCH":"2025-11-29T17:19:51.345120","MEAN_MOTION":15.30209955,"ECCENTRICITY":0.0001174,"INCLINATION":53.1599,"RA_OF_ASC_NODE":128.7713,"ARG_OF_PERICENTER":71.6652,"MEAN_ANOMALY":288.4477,"EPHEMERIS_TYPE":0,"CLASSIFICATION_TYPE":"U","NORAD_CAT_ID":57936,"ELEMENT_SET_NO":999,"REV_AT_EPOCH":12311,"BSTAR":-0.00012102,"MEAN_MOTION_DOT":-3.942e-5,"MEAN_MOTION_DDOT":0},{"OBJECT_NAME":"STARLINK-30400","OBJECT_ID":"2023-148C","EPOCH":"2025-11-30T03:40:15.967776","MEAN_MOTION":15.30182591,"ECCENTRICITY":0.0001103,"INCLINATION":53.162,"RA_OF_ASC_NODE":126.531,"ARG_OF_PERICENTER":92.8008,"MEAN_ANOMALY":267.3119,"EPHEMERIS_TYPE":0,"CLASSIFICATION_TYPE":"U","NORAD_CAT_ID":57937,"ELEMENT_SET_NO":999,"REV_AT_EPOCH":12318,"BSTAR":-2.4056e-5,"MEAN_MOTION_DOT":-1.071e-5,"MEAN_MOTION_DDOT":0},{"OBJECT_NAME":"STARLINK-30710","OBJECT_ID":"2023-148D","EPOCH":"2025-11-29T16:23:46.912704","MEAN_MOTION":15.30199698,"ECCENTRICITY":0.0001236,"INCLINATION":53.1606,"RA_OF_ASC_NODE":118.7409,"ARG_OF_PERICENTER":83.5831,"MEAN_ANOMALY":276.5311,"EPHEMERIS_TYPE":0,"CLASSIFICATION_TYPE":"U","NORAD_CAT_ID":57938,"ELEMENT_SET_NO":999,"REV_AT_EPOCH":12324,"BSTAR":4.9511e-5,"MEAN_MOTION_DOT":1.107e-5,"MEAN_MOTION_DDOT":0},{"OBJECT_NAME":"STARLINK-30714","OBJECT_ID":"2023-148E","EPOCH":"2025-11-29T17:28:58.467936","MEAN_MOTION":15.30196211,"ECCENTRICITY":0.0001138,"INCLINATION":53.1594,"RA_OF_ASC_NODE":128.7955,"ARG_OF_PERICENTER":80.4877,"MEAN_ANOMALY":279.6252,"EPHEMERIS_TYPE":0,"CLASSIFICATION_TYPE":"U","NORAD_CAT_ID":57939,"ELEMENT_SET_NO":999,"REV_AT_EPOCH":12311,"BSTAR":-8.9414e-6,"MEAN_MOTION_DOT":-6.24e-6,"MEAN_MOTION_DDOT":0},{"OBJECT_NAME":"STARLINK-30711","OBJECT_ID":"2023-148F","EPOCH":"2025-11-29T17:24:25.189056","MEAN_MOTION":15.3019198,"ECCENTRICITY":0.0001107,"INCLINATION":53.1577,"RA_OF_ASC_NODE":128.7962,"ARG_OF_PERICENTER":75.9812,"MEAN_ANOMALY":284.1311,"EPHEMERIS_TYPE":0,"CLASSIFICATION_TYPE":"U","NORAD_CAT_ID":57940,"ELEMENT_SET_NO":999,"REV_AT_EPOCH":12311,"BSTAR":4.7886e-5,"MEAN_MOTION_DOT":1.059e-5,"MEAN_MOTION_DDOT":0},{"OBJECT_NAME":"STARLINK-30715","OBJECT_ID":"2023-148G","EPOCH":"2025-11-30T03:09:58.487616","MEAN_MOTION":15.30195861,"ECCENTRICITY":0.0001261,"INCLINATION":53.1606,"RA_OF_ASC_NODE":116.4235,"ARG_OF_PERICENTER":88.1082,"MEAN_ANOMALY":272.0063,"EPHEMERIS_TYPE":0,"CLASSIFICATION_TYPE":"U","NORAD_CAT_ID":57941,"ELEMENT_SET_NO":999,"REV_AT_EPOCH":12332,"BSTAR":3.1095e-5,"MEAN_MOTION_DOT":5.62e-6,"MEAN_MOTION_DDOT":0},{"OBJECT_NAME":"STARLINK-30455","OBJECT_ID":"2023-148H","EPOCH":"2025-11-30T02:57:50.528736","MEAN_MOTION":15.30195733,"ECCENTRICITY":0.0001176,"INCLINATION":53.1572,"RA_OF_ASC_NODE":126.9607,"ARG_OF_PERICENTER":88.8659,"MEAN_ANOMALY":271.2476,"EPHEMERIS_TYPE":0,"CLASSIFICATION_TYPE":"U","NORAD_CAT_ID":57942,"ELEMENT_SET_NO":999,"REV_AT_EPOCH":12317,"BSTAR":6.3716e-5,"MEAN_MOTION_DOT":1.528e-5,"MEAN_MOTION_DDOT":0},{"OBJECT_NAME":"STARLINK-30456","OBJECT_ID":"2023-148J","EPOCH":"2025-11-29T17:15:18.720288","MEAN_MOTION":15.30183116,"ECCENTRICITY":0.0001216,"INCLINATION":53.1603,"RA_OF_ASC_NODE":128.8307,"ARG_OF_PERICENTER":85.1257,"MEAN_ANOMALY":274.9882,"EPHEMERIS_TYPE":0,"CLASSIFICATION_TYPE":"U","NORAD_CAT_ID":57943,"ELEMENT_SET_NO":999,"REV_AT_EPOCH":12311,"BSTAR":-5.444e-5,"MEAN_MOTION_DOT":-1.97e-5,"MEAN_MOTION_DDOT":0},{"OBJECT_NAME":"STARLINK-30708","OBJECT_ID":"2023-148K","EPOCH":"2025-11-29T16:46:26.609376","MEAN_MOTION":15.30191888,"ECCENTRICITY":0.0001323,"INCLINATION":53.161,"RA_OF_ASC_NODE":128.7042,"ARG_OF_PERICENTER":88.5455,"MEAN_ANOMALY":271.5698,"EPHEMERIS_TYPE":0,"CLASSIFICATION_TYPE":"U","NORAD_CAT_ID":57944,"ELEMENT_SET_NO":999,"REV_AT_EPOCH":12311,"BSTAR":7.5274e-6,"MEAN_MOTION_DOT":-1.36e-6,"MEAN_MOTION_DDOT":0},{"OBJECT_NAME":"STARLINK-30705","OBJECT_ID":"2023-148L","EPOCH":"2025-11-29T15:27:35.195040","MEAN_MOTION":15.30185433,"ECCENTRICITY":9.96e-5,"INCLINATION":53.1595,"RA_OF_ASC_NODE":129.077,"ARG_OF_PERICENTER":91.8593,"MEAN_ANOMALY":268.2522,"EPHEMERIS_TYPE":0,"CLASSIFICATION_TYPE":"U","NORAD_CAT_ID":57945,"ELEMENT_SET_NO":999,"REV_AT_EPOCH":12310,"BSTAR":5.739e-5,"MEAN_MOTION_DOT":1.34e-5,"MEAN_MOTION_DDOT":0},{"OBJECT_NAME":"STARLINK-30704","OBJECT_ID":"2023-148M","EPOCH":"2025-11-30T01:22:33.276576","MEAN_MOTION":15.30197965,"ECCENTRICITY":0.0001369,"INCLINATION":53.16,"RA_OF_ASC_NODE":204.2305,"ARG_OF_PERICENTER":81.7325,"MEAN_ANOMALY":278.3831,"EPHEMERIS_TYPE":0,"CLASSIFICATION_TYPE":"U","NORAD_CAT_ID":57946,"ELEMENT_SET_NO":999,"REV_AT_EPOCH":12206,"BSTAR":5.6861e-5,"MEAN_MOTION_DOT":1.325e-5,"MEAN_MOTION_DDOT":0},{"OBJECT_NAME":"STARLINK-30706","OBJECT_ID":"2023-148N","EPOCH":"2025-11-29T17:10:45.545952","MEAN_MOTION":15.3019059,"ECCENTRICITY":0.0001178,"INCLINATION":53.1597,"RA_OF_ASC_NODE":128.8023,"ARG_OF_PERICENTER":69.0061,"MEAN_ANOMALY":291.1065,"EPHEMERIS_TYPE":0,"CLASSIFICATION_TYPE":"U","NORAD_CAT_ID":57947,"ELEMENT_SET_NO":999,"REV_AT_EPOCH":12311,"BSTAR":8.5045e-6,"MEAN_MOTION_DOT":-1.07e-6,"MEAN_MOTION_DDOT":0},{"OBJECT_NAME":"STARLINK-30707","OBJECT_ID":"2023-148Q","EPOCH":"2025-11-29T17:06:12.070080","MEAN_MOTION":15.30191108,"ECCENTRICITY":0.0001048,"INCLINATION":53.1602,"RA_OF_ASC_NODE":128.7895,"ARG_OF_PERICENTER":77.9152,"MEAN_ANOMALY":282.1967,"EPHEMERIS_TYPE":0,"CLASSIFICATION_TYPE":"U","NORAD_CAT_ID":57949,"ELEMENT_SET_NO":999,"REV_AT_EPOCH":12311,"BSTAR":1.6458e-5,"MEAN_MOTION_DOT":1.28e-6,"MEAN_MOTION_DDOT":0}]
